ONEWEB-0415             
1 51624U 22012C   24165.59590189 -.00000138  00000+0 -43144-3 0  9991
2 51624  87.8931 182.1325 0001932  80.7932 279.3414 13.10369057113215
ONEWEB-0416             
1 51625U 22012D   24165.60751628 -.00000580  00000+0 -16991-2 0  9991
2 51625  87.8938 182.1247 0002011  91.6110 268.5248 13.10371832113257
ONEWEB-0422             
1 51626U 22012E   24165.45611094  .00000018  00000+0  13295-4 0  9997
2 51626  87.9163 151.9099 0002857  89.8512 270.2947 13.17648732117186
ONEWEB-0423             
1 51627U 22012F   24165.44976901  .00000034  00000+0  54052-4 0  9992
2 51627  87.9166 151.9122 0002150  90.2839 269.8539 13.17647449117074
ONEWEB-0425             
1 51628U 22012G   24165.54111903 -.00000591  00000+0 -17307-2 0  9997
2 51628  87.8939 182.1214 0001892 102.4949 257.6390 13.10374573113243
ONEWEB-0428             
1 51629U 22012H   24165.59755868 -.00000187  00000+0 -57118-3 0  9993
2 51629  87.8935 182.1256 0002280  85.6874 274.4514 13.10368879113211
ONEWEB-0431             
1 51630U 22012J   24165.56756055  .00000524  00000+0  14659-2 0  9996
2 51630  87.8936 182.1287 0002437  74.5427 285.5969 13.10375704113260
ONEWEB-0434             
1 51631U 22012K   24165.54443852 -.00000544  00000+0 -15940-2 0  9991
2 51631  87.8944 182.1479 0002222  92.9135 267.2247 13.10375462113240
